ONEWEB-0504             
1 54122U 22138K   24236.48949380  .00000027  00000+0  36035-4 0  9991
2 54122  87.9092  76.8032 0001518  74.9276 285.2024 13.19726455 90293
ONEWEB-0505             
1 54123U 22138L   24236.10724605  .00000040  00000+0  66720-4 0  9991
2 54123  87.9091  76.8736 0001035  72.2506 287.8739 13.19726408 90227
ONEWEB-0506             
1 54124U 22138M   24235.93034137  .00000006  00000+0 -16371-4 0  9996
2 54124  87.9091  76.9059 0001472  84.3733 275.7567 13.19726672 89325
ONEWEB-0507             
1 54125U 22138N   24235.95087442  .00000047  00000+0  84268-4 0  9990
2 54125  87.9100  76.9287 0001421  89.3565 270.7730 13.19727176 89374
ONEWEB-0508             
1 54126U 22138P   24236.09934564 -.00000031  00000+0 -11027-3 0  9990
2 54126  87.9097  76.8905 0001265  93.2902 266.8375 13.19724191 90244
ONEWEB-0509             
1 54127U 22138Q   24235.92243996 -.00000037  00000+0 -12395-3 0  9999
2 54127  87.9090  76.9082 0001561  83.7335 276.3975 13.19726526 89321
ONEWEB-0510             
1 54128U 22138R   24236.48684525  .00000055  00000+0  10245-3 0  9999
2 54128  87.9196  46.2532 0002132 101.1728 258.9645 13.20770920 92700
ONEWEB-0511             
1 54129U 22138S   24235.91927707 -.00000306  00000+0 -79768-3 0  9995
2 54129  87.9092  76.9123 0001816  71.3275 288.8054 13.19728491 89352
